$$SOE
2460728.500000000, A.D. 2025-Feb-22 00:00:00.0000, 4.800412783464735E+08, 4.160135304301633E+08, -6.334067487014340E+07,
2460735.500000000, A.D. 2025-Mar-01 00:00:00.0000, 4.742767240917463E+08, 4.184612359123849E+08, -6.366163956793639E+07,
2460742.500000000, A.D. 2025-Mar-08 00:00:00.0000, 4.684224192867073E+08, 4.208298802205080E+08, -6.397055325642379E+07,
2460749.500000000, A.D. 2025-Mar-15 00:00:00.0000, 4.624783149389933E+08, 4.231179748117917E+08, -6.426719941754971E+07,
2460756.500000000, A.D. 2025-Mar-22 00:00:00.0000, 4.564443573616731E+08, 4.253239915423152E+08, -6.455135519508509E+07,
2460763.500000000, A.D. 2025-Mar-29 00:00:00.0000, 4.503204877399799E+08, 4.274463589653020E+08, -6.482279119055928E+07,
2460770.500000000, A.D. 2025-Apr-05 00:00:00.0000, 4.441066434292743E+08, 4.294834594159095E+08, -6.508127132779163E+07,
2460777.500000000, A.D. 2025-Apr-12 00:00:00.0000, 4.378027590617163E+08, 4.314336269799042E+08, -6.532655260019153E+07,
2460784.500000000, A.D. 2025-Apr-19 00:00:00.0000, 4.314087672783809E+08, 4.332951454582389E+08, -6.555838475494702E+07,
2460791.500000000, A.D. 2025-Apr-26 00:00:00.0000, 4.249245993629919E+08, 4.350662461174694E+08, -6.577650995481521E+07,
2460798.500000000, A.D. 2025-May-03 00:00:00.0000, 4.183501858959903E+08, 4.367451052375877E+08, -6.598066242546271E+07,
2460805.500000000, A.D. 2025-May-10 00:00:00.0000, 4.116854574630823E+08, 4.383298414576960E+08, -6.617056808922832E+07,
2460812.500000000, A.D. 2025-May-17 00:00:00.0000, 4.049303454611564E+08, 4.398185128695746E+08, -6.634594419085133E+07,
2460819.500000000, A.D. 2025-May-24 00:00:00.0000, 3.980847831823744E+08, 4.412091137950794E+08, -6.650649893426132E+07,
2460826.500000000, A.D. 2025-May-31 00:00:00.0000, 3.911487076020342E+08, 4.424995715479167E+08, -6.665193114192633E+07,
2460833.500000000, A.D. 2025-Jun-07 00:00:00.0000, 3.841220614778655E+08, 4.436877443727899E+08, -6.678192979992560E+07,
2460840.500000000, A.D. 2025-Jun-14 00:00:00.0000, 3.770047934049264E+08, 4.447714198820910E+08, -6.689617332440725E+07,
2460847.500000000, A.D. 2025-Jun-21 00:00:00.0000, 3.697968570528876E+08, 4.457483107060440E+08, -6.699432892638442E+07,
2460854.500000000, A.D. 2025-Jun-28 00:00:00.0000, 3.624982127263420E+08, 4.466160491071063E+08, -6.707605221570230E+07,
2460861.500000000, A.D. 2025-Jul-05 00:00:00.0000, 3.551088297446432E+08, 4.473721826989096E+08, -6.714098672658895E+07,
2460868.500000000, A.D. 2025-Jul-12 00:00:00.0000, 3.476286884644972E+08, 4.480141704470957E+08, -6.718876331882149E+07,
2460875.500000000, A.D. 2025-Jul-19 00:00:00.0000, 3.400577821510434E+08, 4.485393783585870E+08, -6.721899951621518E+07,
2460882.500000000, A.D. 2025-Jul-26 00:00:00.0000, 3.323961189256904E+08, 4.489450747827538E+08, -6.723129880345133E+07,
2460889.500000000, A.D. 2025-Aug-02 00:00:00.0000, 3.246437238767146E+08, 4.492284253243083E+08, -6.722524988235711E+07,
2460896.500000000, A.D. 2025-Aug-09 00:00:00.0000, 3.168006413791550E+08, 4.493864873293936E+08, -6.720042588754241E+07,
2460903.500000000, A.D. 2025-Aug-16 00:00:00.0000, 3.088669377267205E+08, 4.494162038554654E+08, -6.715638356979644E+07,
2460910.500000000, A.D. 2025-Aug-23 00:00:00.0000, 3.008427043970851E+08, 4.493143971129497E+08, -6.709266246851063E+07,
2460917.500000000, A.D. 2025-Aug-30 00:00:00.0000, 2.927280623118048E+08, 4.490777620617753E+08, -6.700878404036416E+07,
2460924.500000000, A.D. 2025-Sep-06 00:00:00.0000, 2.845231657087958E+08, 4.487028611289103E+08, -6.690425052736016E+07,
2460931.500000000, A.D. 2025-Sep-13 00:00:00.0000, 2.762282039963375E+08, 4.481861175275906E+08, -6.677854360819229E+07,
2460938.500000000, A.D. 2025-Sep-20 00:00:00.0000, 2.678434049083381E+08, 4.475238054966985E+08, -6.663112326204418E+07,
2460945.500000000, A.D. 2025-Sep-27 00:00:00.0000, 2.593690400741100E+08, 4.467120405306065E+08, -6.646142668206090E+07,
2460952.500000000, A.D. 2025-Oct-04 00:00:00.0000, 2.508054310471040E+08, 4.457467700920231E+08, -6.626886700303446E+07,
2460959.500000000, A.D. 2025-Oct-11 00:00:00.0000, 2.421529554877738E+08, 4.446237638141721E+08, -6.605283187907706E+07,
2460966.500000000, A.D. 2025-Oct-18 00:00:00.0000, 2.334120538625775E+08, 4.433386028630435E+08, -6.581268195222192E+07,
2460973.500000000, A.D. 2025-Oct-25 00:00:00.0000, 2.245832368878906E+08, 4.418866684112233E+08, -6.554774921580066E+07,
2460980.500000000, A.D. 2025-Nov-01 00:00:00.0000, 2.156670938601131E+08, 4.402631291742851E+08, -6.525733526629671E+07,
2460987.500000000, A.D. 2025-Nov-08 00:00:00.0000, 2.066643020230125E+08, 4.384629279085306E+08, -6.494070944012114E+07,
2460994.500000000, A.D. 2025-Nov-15 00:00:00.0000, 1.975756372536975E+08, 4.364807667360976E+08, -6.459710684368621E+07,
2461001.500000000, A.D. 2025-Nov-22 00:00:00.0000, 1.884019866234208E+08, 4.343110914363657E+08, -6.422572628509963E+07,
2461008.500000000, A.D. 2025-Nov-29 00:00:00.0000, 1.791443628572028E+08, 4.319480757509937E+08, -6.382572798938708E+07,
2461015.500000000, A.D. 2025-Dec-06 00:00:00.0000, 1.698039186183771E+08, 4.293856054702841E+08, -6.339623088685642E+07,
2461022.500000000, A.D. 2025-Dec-13 00:00:00.0000, 1.603819612838687E+08, 4.266172588282180E+08, -6.293630977587314E+07,
2461029.500000000, A.D. 2025-Dec-20 00:00:00.0000, 1.508799719734084E+08, 4.236362841248224E+08, -6.244499258327921E+07,
2461036.500000000, A.D. 2025-Dec-27 00:00:00.0000, 1.412996280735673E+08, 4.204355770559382E+08, -6.192125739825943E+07,
2461043.500000000, A.D. 2026-Jan-03 00:00:00.0000, 1.316428281610645E+08, 4.170076570179589E+08, -6.136402918126966E+07,
2461050.500000000, A.D. 2026-Jan-10 00:00:00.0000, 1.219117198577756E+08, 4.133446415900906E+08, -6.077217619880870E+07,
2461057.500000000, A.D. 2026-Jan-17 00:00:00.0000, 1.121087313430112E+08, 4.094382189841230E+08, -6.014450619863470E+07,
2461064.500000000, A.D. 2026-Jan-24 00:00:00.0000, 1.022366071765914E+08, 4.052796183687432E+08, -5.947976231744242E+07,
2461071.500000000, A.D. 2026-Jan-31 00:00:00.0000, 9.229844912876694E+07, 4.008595779528275E+08, -5.877661871211365E+07,
2461078.500000000, A.D. 2026-Feb-07 00:00:00.0000, 8.229776286538771E+07, 3.961683106765916E+08, -5.803367591593441E+07,
2461085.500000000, A.D. 2026-Feb-14 00:00:00.0000, 7.223851166313514E+07, 3.911954674258593E+08, -5.724945593960921E+07,
2461092.500000000, A.D. 2026-Feb-21 00:00:00.0000, 6.212517862388345E+07, 3.859300983155803E+08, -5.642239710754310E+07,
2461099.500000000, A.D. 2026-Feb-28 00:00:00.0000, 5.196283757558749E+07, 3.803606132213255E+08, -5.555084844747986E+07,
2461106.500000000, A.D. 2026-Mar-07 00:00:00.0000, 4.175723209707697E+07, 3.744747397093036E+08, -5.463306362760155E+07,
2461113.500000000, A.D. 2026-Mar-14 00:00:00.0000, 3.151486719626778E+07, 3.682594762470282E+08, -5.366719492716539E+07,
2461120.500000000, A.D. 2026-Mar-21 00:00:00.0000, 2.124311749088284E+07, 3.617010439755597E+08, -5.265128723620886E+07,
2461127.500000000, A.D. 2026-Mar-28 00:00:00.0000, 1.095035231668617E+07, 3.547848386728240E+08, -5.158327191901952E+07,
2461134.500000000, A.D. 2026-Apr-04 00:00:00.0000, 6.460800167118515E+05, 3.474953828440417E+08, -5.046096071364336E+07,
2461141.500000000, A.D. 2026-Apr-11 00:00:00.0000, -9.658884965537665E+06, 3.398162788974907E+08, -4.928203993458882E+07,
2461148.500000000, A.D. 2026-Apr-18 00:00:00.0000, -1.995222811441897E+07, 3.317301652811005E+08, -4.804406529233399E+07,
2461155.500000000, A.D. 2026-Apr-25 00:00:00.0000, -3.021990939210980E+07, 3.232186782364696E+08, -4.674445774506477E+07,
2461162.500000000, A.D. 2026-May-02 00:00:00.0000, -4.044590102428052E+07, 3.142624228039405E+08, -4.538050095150773E+07,
2461169.500000000, A.D. 2026-May-09 00:00:00.0000, -5.061188240298859E+07, 3.048409580492768E+08, -4.394934110734373E+07,
2461176.500000000, A.D. 2026-May-16 00:00:00.0000, -6.069688500257906E+07, 2.949328035328734E+08, -4.244799022620019E+07,
2461183.500000000, A.D. 2026-May-23 00:00:00.0000, -7.067687987870955E+07, 2.845154773936565E+08, -4.087333418893270E+07,
2461190.500000000, A.D. 2026-May-30 00:00:00.0000, -8.052430200765935E+07, 2.735655789792119E+08, -3.922214722790816E+07,
2461197.500000000, A.D. 2026-Jun-06 00:00:00.0000, -9.020750395691137E+07, 2.620589296045065E+08, -3.749111558345474E+07,
2461204.500000000, A.D. 2026-Jun-13 00:00:00.0000, -9.969012823452599E+07, 2.499707939797123E+08, -3.567687393837131E+07,
2461211.500000000, A.D. 2026-Jun-20 00:00:00.0000, -1.089303940623823E+08, 2.372762146002910E+08, -3.377605864196561E+07,
2461218.500000000, A.D. 2026-Jun-27 00:00:00.0000, -1.178802999731192E+08, 2.239504968294861E+08, -3.178538312773359E+07,
2461225.500000000, A.D. 2026-Jul-04 00:00:00.0000, -1.264847499179514E+08, 2.099698923828734E+08, -2.970174257962938E+07,
2461232.500000000, A.D. 2026-Jul-11 00:00:00.0000, -1.346806235983341E+08, 1.953125413605801E+08, -2.752235650270812E+07,
2461239.500000000, A.D. 2026-Jul-18 00:00:00.0000, -1.423958328309518E+08, 1.799597451755939E+08, -2.524495944567312E+07,
2461246.500000000, A.D. 2026-Jul-25 00:00:00.0000, -1.495484373179431E+08, 1.638976525381458E+08, -2.286805135065562E+07,
2461253.500000000, A.D. 2026-Aug-01 00:00:00.0000, -1.560459382561321E+08, 1.471194435728649E+08, -2.039121916192743E+07,
2461260.500000000, A.D. 2026-Aug-08 00:00:00.0000, -1.617849288089619E+08, 1.296280853394441E+08, -1.781553924455608E+07,
2461267.500000000, A.D. 2026-Aug-15 00:00:00.0000, -1.666513555541581E+08, 1.114396937810055E+08, -1.514406404834140E+07,
2461274.500000000, A.D. 2026-Aug-22 00:00:00.0000, -1.705217276936615E+08, 9.258745596336639E+07, -1.238238387644152E+07,
2461281.500000000, A.D. 2026-Aug-29 00:00:00.0000, -1.732656788197829E+08, 7.312592115006937E+07, -9.539233556337222E+06,
2461288.500000000, A.D. 2026-Sep-05 00:00:00.0000, -1.747502929844362E+08, 5.313525365906857E+07, -6.627083180214319E+06,
2461295.500000000, A.D. 2026-Sep-12 00:00:00.0000, -1.748465026340057E+08, 3.272477284037699E+07, -3.662612655424269E+06,
$$EOE